DMSP 5D-3 F16 (USA 172) 
1 28054U 03048A   26201.29373843 -.00000061  00000+0 -81881-5 0  9993
2 28054  98.9896 225.3399 0007971  58.5746 127.0766 14.14484699174160
METEOSAT-9 (MSG-2)      
1 28912U 05049B   26201.19965310  .00000116  00000+0  00000+0 0  9991
2 28912   9.4343  53.8381 0002437 358.7484   2.9518  1.00274969  7336
DMSP 5D-3 F17 (USA 191) 
1 29522U 06050A   26201.26252929 -.00000018  00000+0  13245-4 0  9997
2 29522  98.7389 207.1573 0009435 327.7446  32.3150 14.14996325 17102
FENGYUN 3A              
1 32958U 08026A   26200.82209508  .00000025  00000+0  32616-4 0  9995
2 32958  98.6885 141.0459 0009496  39.7759 320.4112 14.19577104940033
EWS-G3 (GOES 14)        
1 35491U 09033A   26201.28602927 -.00000362  00000+0  00000+0 0  9994
2 35491   1.7731  82.6345 0002132  38.8071  41.4613  1.00095947  6927
DMSP 5D-3 F18 (USA 210) 
1 35951U 09057A   26201.23596712  .00000177  00000+0  11451-3 0  9999
2 35951  98.9060 181.9371 0011524 151.6055 208.5748 14.14913916864262
EWS-G2 (GOES 15)        
1 36411U 10008A   26201.13188149  .00000020  00000+0  00000+0 0  9990
2 36411   1.3667  82.4078 0005426  53.9300 272.3057  1.00269215 59967
COMS 1                  
1 36744U 10032A   26201.10787472 -.00000200  00000+0  00000+0 0  9998
2 36744   4.8878  74.9595 0011416  15.0884 189.2025  0.99166795 51419
FENGYUN 3B              
1 37214U 10059A   26201.26139073  .00000150  00000+0  10082-3 0  9993
2 37214  98.9599 247.4132 0023184  93.0570 342.3389 14.14848747812105
SUOMI NPP               
1 37849U 11061A   26201.25746551  .00000025  00000+0  32981-4 0  9999
2 37849  98.7956 141.9089 0001002 190.8912 169.2243 14.19523264763136
METEOSAT-10 (MSG-3)     
1 38552U 12035B   26201.26193583 -.00000011  00000+0  00000+0 0  9993
2 38552   4.7482  60.8574 0001396  17.9639 313.5576  1.00272436 51184
METOP-B                 
1 38771U 12049A   26201.27330794  .00000039  00000+0  37423-4 0  9992
2 38771  98.6486 252.1093 0001274 227.9672 132.1397 14.21447311717964
INSAT-3D                
1 39216U 13038B   26201.28750262 -.00000342  00000+0  00000+0 0  9997
2 39216   2.0097  82.1241 0001031  42.7884  46.1446  1.00273844 47417
FENGYUN 3C              
1 39260U 13052A   26201.26027756  .00000044  00000+0  43689-4 0  9998
2 39260  98.5004 173.6207 0013507 290.2883  69.6839 14.15761400663243
METEOR-M 2              
1 40069U 14037A   26201.22880641 -.00000004  00000+0  17564-4 0  9997
2 40069  98.5142 175.8011 0004818 310.1332  49.9423 14.21469994624010
HIMAWARI-8              
1 40267U 14060A   26201.21845985 -.00000278  00000+0  00000+0 0  9999
2 40267   0.0138  51.8822 0001257 109.7972 355.6160  1.00270266 43095
FENGYUN 2G              
1 40367U 14090A   26200.64000413 -.00000309  00000+0  00000+0 0  9993
2 40367   5.7192  72.4242 0003943 173.6464  21.2039  1.00279249 42329
METEOSAT-11 (MSG-4)     
1 40732U 15034A   26201.26375584  .00000058  00000+0  00000+0 0  9991
2 40732   3.2812  70.8951 0002040 355.2226 336.1421  1.00273442  7544
ELEKTRO-L 2             
1 41105U 15074A   26200.97384480 -.00000124  00000+0  00000+0 0  9997
2 41105   6.7747  70.1203 0000853 224.9166 338.8081  1.00272222 38834
SENTINEL-3A             
1 41335U 16011A   26201.24771547  .00000038  00000+0  33686-4 0  9993
2 41335  98.6233 268.1538 0001313  89.0056 271.1275 14.26740662542776
INSAT-3DR               
1 41752U 16054A   26201.13396150 -.00000079  00000+0  00000+0 0  9999
2 41752   0.0821  89.1088 0010365 180.4322 150.5816  1.00271399 36143
HIMAWARI-9              
1 41836U 16064A   26201.21845985 -.00000277  00000+0  00000+0 0  9997
2 41836   0.0303 261.4529 0001940 267.9120 348.0115  1.00274049 35546
GOES 16                 
1 41866U 16071A   26201.27137981 -.00000093  00000+0  00000+0 0  9990
2 41866   0.4169  85.4572 0000642  76.5047 129.0810  1.00271603 35435
FENGYUN 4A              
1 41882U 16077A   26201.28637594 -.00000360  00000+0  00000+0 0  9997
2 41882   2.4048  79.9093 0008233 159.7284 285.1835  1.00265846 35262
CYGFM05                 
1 41884U 16078A   26201.25593410  .00016219  00000+0  20939-3 0  9991
2 41884  34.9574  41.3756 0005308  93.0572 267.0760 15.58013309533911
CYGFM04                 
1 41885U 16078B   26200.79986980  .00020059  00000+0  21124-3 0  9992
2 41885  34.9331  10.3823 0004233 139.1895 220.9148 15.63274012534106
CYGFM02                 
1 41886U 16078C   26200.79847116  .00025330  00000+0  23327-3 0  9994
2 41886  34.9412   3.9203 0004969 140.4749 219.6342 15.66597334534284
CYGFM01                 
1 41887U 16078D   26200.90947980  .00016457  00000+0  20679-3 0  9995
2 41887  34.9403  44.4582 0005216  80.7799 279.3516 15.58725490533813
CYGFM08                 
1 41888U 16078E   26200.87432412  .00020276  00000+0  22753-3 0  9990
2 41888  34.9437  23.3710 0005978 120.9672 239.1641 15.61638702534088
CYGFM07                 
1 41890U 16078G   26201.15091802  .00020042  00000+0  22393-3 0  9990
2 41890  34.9455   9.8375 0004681 142.4350 217.6704 15.61760483534150
CYGFM03                 
1 41891U 16078H   26200.80255263  .00019463  00000+0  21776-3 0  9994
2 41891  34.9410  14.0906 0004320 120.7282 239.3869 15.61730269534076
