OBJECT_NAME,OBJECT_ID,EPOCH,MEAN_MOTION,ECCENTRICITY,INCLINATION,RA_OF_ASC_NODE,ARG_OF_PERICENTER,MEAN_ANOMALY,EPHEMERIS_TYPE,CLASSIFICATION_TYPE,NORAD_CAT_ID,ELEMENT_SET_NO,REV_AT_EPOCH,BSTAR,MEAN_MOTION_DOT,MEAN_MOTION_DDOT
DMSP 5D-3 F16 (USA 172),2003-048A,2026-07-20T07:02:59.000352,14.14484699,.00079718,98.9896,225.3399,58.5746,127.0766,0,U,28054,999,17416,-.8188138E-5,-.61E-6,0
METEOSAT-9 (MSG-2),2005-049B,2026-07-20T04:47:30.027840,1.00274969,.00024377,9.4343,53.8381,358.7484,2.9518,0,U,28912,999,733,0,.116E-5,0
DMSP 5D-3 F17 (USA 191),2006-050A,2026-07-20T06:18:02.530656,14.14996325,.00094358,98.7389,207.1573,327.7446,32.3150,0,U,29522,999,1710,.13245465E-4,-.18E-6,0
FENGYUN 3A,2008-026A,2026-07-19T19:43:49.014912,14.19577104,.00094967,98.6885,141.0459,39.7759,320.4112,0,U,32958,999,94003,.32616302E-4,.25E-6,0
EWS-G3 (GOES 14),2009-033A,2026-07-20T06:51:52.928928,1.00095947,.00021326,1.7731,82.6345,38.8071,41.4613,0,U,35491,999,692,0,-.362E-5,0
DMSP 5D-3 F18 (USA 210),2009-057A,2026-07-20T05:39:47.559168,14.14913916,.00115242,98.9060,181.9371,151.6055,208.5748,0,U,35951,999,86426,.1145053E-3,.177E-5,0
EWS-G2 (GOES 15),2010-008A,2026-07-20T03:09:54.560736,1.00269215,.00054265,1.3667,82.4078,53.9300,272.3057,0,U,36411,999,5996,0,.2E-6,0
COMS 1,2010-032A,2026-07-20T02:35:20.375808,0.99166795,.00114169,4.8878,74.9595,15.0884,189.2025,0,U,36744,999,5141,0,-.2E-5,0
FENGYUN 3B,2010-059A,2026-07-20T06:16:24.159072,14.14848747,.00231841,98.9599,247.4132,93.0570,342.3389,0,U,37214,999,81210,.10081678E-3,.15E-5,0
SUOMI NPP,2011-061A,2026-07-20T06:10:45.020064,14.19523264,.00010022,98.7956,141.9089,190.8912,169.2243,0,U,37849,999,76313,.32981494E-4,.25E-6,0
METEOSAT-10 (MSG-3),2012-035B,2026-07-20T06:17:11.255712,1.00272436,.00013966,4.7482,60.8574,17.9639,313.5576,0,U,38552,999,5118,0,-.11E-6,0
METOP-B,2012-049A,2026-07-20T06:33:33.806016,14.21447311,.00012742,98.6486,252.1093,227.9672,132.1397,0,U,38771,999,71796,.37423474E-4,.39E-6,0
INSAT-3D,2013-038B,2026-07-20T06:54:00.226368,1.00273844,.00010316,2.0097,82.1241,42.7884,46.1446,0,U,39216,999,4741,0,-.342E-5,0
FENGYUN 3C,2013-052A,2026-07-20T06:14:47.981184,14.15761400,.00135076,98.5004,173.6207,290.2883,69.6839,0,U,39260,999,66324,.43688663E-4,.44E-6,0
METEOR-M 2,2014-037A,2026-07-20T05:29:28.873824,14.21469994,.00048187,98.5142,175.8011,310.1332,49.9423,0,U,40069,999,62401,.17563951E-4,-.4E-7,0
HIMAWARI-8,2014-060A,2026-07-20T05:14:34.931040,1.00270266,.00012573,0.0138,51.8822,109.7972,355.6160,0,U,40267,999,4309,0,-.278E-5,0
FENGYUN 2G,2014-090A,2026-07-19T15:21:36.356832,1.00279249,.00039431,5.7192,72.4242,173.6464,21.2039,0,U,40367,999,4232,0,-.309E-5,0
METEOSAT-11 (MSG-4),2015-034A,2026-07-20T06:19:48.504576,1.00273442,.00020409,3.2812,70.8951,355.2226,336.1421,0,U,40732,999,754,0,.58E-6,0
ELEKTRO-L 2,2015-074A,2026-07-19T23:22:20.190720,1.00272222,.00008535,6.7747,70.1203,224.9166,338.8081,0,U,41105,999,3883,0,-.124E-5,0
SENTINEL-3A,2016-011A,2026-07-20T05:56:42.616608,14.26740662,.0001313,98.6233,268.1538,89.0056,271.1275,0,U,41335,999,54277,.3368566E-4,.38E-6,0
INSAT-3DR,2016-054A,2026-07-20T03:12:54.273600,1.00271399,.00103656,0.0821,89.1088,180.4322,150.5816,0,U,41752,999,3614,0,-.79E-6,0
HIMAWARI-9,2016-064A,2026-07-20T05:14:34.931040,1.00274049,.00019405,0.0303,261.4529,267.9120,348.0115,0,U,41836,999,3554,0,-.277E-5,0
GOES 16,2016-071A,2026-07-20T06:30:47.215584,1.00271603,.00006421,0.4169,85.4572,76.5047,129.0810,0,U,41866,999,3543,0,-.93E-6,0
FENGYUN 4A,2016-077A,2026-07-20T06:52:22.881216,1.00265846,.00082334,2.4048,79.9093,159.7284,285.1835,0,U,41882,999,3526,0,-.36E-5,0
CYGFM05,2016-078A,2026-07-20T06:08:32.706240,15.58013309,.00053082,34.9574,41.3756,93.0572,267.0760,0,U,41884,999,53391,.20938862E-3,.16219E-3,0
CYGFM04,2016-078B,2026-07-19T19:11:48.750720,15.63274012,.00042339,34.9331,10.3823,139.1895,220.9148,0,U,41885,999,53410,.21123865E-3,.20059E-3,0
CYGFM02,2016-078C,2026-07-19T19:09:47.908224,15.66597334,.00049698,34.9412,3.9203,140.4749,219.6342,0,U,41886,999,53428,.23326623E-3,.2533E-3,0
CYGFM01,2016-078D,2026-07-19T21:49:39.054720,15.58725490,.00052165,34.9403,44.4582,80.7799,279.3516,0,U,41887,999,53381,.20678698E-3,.16457E-3,0
CYGFM08,2016-078E,2026-07-19T20:59:01.603968,15.61638702,.0005978,34.9437,23.3710,120.9672,239.1641,0,U,41888,999,53408,.22752761E-3,.20276E-3,0
CYGFM07,2016-078G,2026-07-20T03:37:19.316928,15.61760483,.00046819,34.9455,9.8375,142.4350,217.6704,0,U,41890,999,53415,.22392969E-3,.20042E-3,0
CYGFM03,2016-078H,2026-07-19T19:15:40.547232,15.61730269,.00043202,34.9410,14.0906,120.7282,239.3869,0,U,41891,999,53407,.21776211E-3,.19463E-3,0
